NORAD_CAT_ID,OBJECT_NAME,OBJECT_TYPE,EPOCH,MEAN_MOTION,ECCENTRICITY,INCLINATION,RA_OF_ASC_NODE,ARG_OF_PERICENTER,MEAN_ANOMALY,BSTAR,MEAN_MOTION_DOT,MEAN_MOTION_DDOT,TLE_LINE0,TLE_LINE1,TLE_LINE2,SEMIMAJOR_AXIS,PERIOD,APOGEE,PERIGEE,DECAYED
53169.0,STARLINK-4117,PAYLOAD,2024-06-08 15:56:56,15.08837858,4.8e-05,53.2157,138.0745,81.9685,278.1362,4.8526e-05,4.85e-06,0.0,0 STARLINK-4117,1 53169U 22083AP  24160.66454303  .00000485  00000-0  48526-4 0  9999,2 53169  53.2157 138.0745 0000480  81.9685 278.1362 15.08837858105082,6917.887,95.438,540.084,539.42,0.0
53169.0,STARLINK-4117,PAYLOAD,2024-06-09 04:40:02,15.08837265,0.0001396,53.2163,135.6932,92.4299,267.6853,8.2692e-06,-1.56e-06,0.0,0 STARLINK-4117,1 53169U 22083AP  24161.19446927 -.00000156  00000-0  82692-5 0  9990,2 53169  53.2163 135.6932 0001396  92.4299 267.6853 15.08837265105805,6917.889,95.438,540.719,538.788,0.0
53169.0,STARLINK-4117,PAYLOAD,2024-06-09 15:47:43,15.08841835,0.0001393,53.2159,133.6145,85.0453,275.0698,5.5949e-05,6.03e-06,0.0,0 STARLINK-4117,1 53169U 22083AP  24161.65814636  .00000603  00000-0  55949-4 0  9997,2 53169  53.2159 133.6145 0001393  85.0453 275.0698 15.08841835105236,6917.875,95.437,540.703,538.776,0.0
53169.0,STARLINK-4117,PAYLOAD,2024-06-10 04:30:48,15.08844607,0.0001434,53.2158,131.2337,91.9894,268.1263,0.00012074,1.634e-05,0.0,0 STARLINK-4117,1 53169U 22083AP  24162.18806592  .00001634  00000-0  12074-3 0  9994,2 53169  53.2158 131.2337 0001434  91.9894 268.1263 15.08844607105953,6917.866,95.437,540.723,538.739,0.0
53169.0,STARLINK-4117,PAYLOAD,2024-06-11 04:21:36,15.08842067,0.0001506,53.2162,126.773,94.1344,265.9821,0.00017942,2.569e-05,0.0,0 STARLINK-4117,1 53169U 22083AP  24163.18166894  .00002569  00000-0  17942-3 0  9996,2 53169  53.2162 126.7730 0001506  94.1344 265.9821 15.08842067106100,6917.874,95.437,540.781,538.697,0.0
53169.0,STARLINK-4117,PAYLOAD,2024-06-11 07:32:22,15.08842291,0.0001513,53.2163,126.1785,93.9743,266.1422,0.00017163,2.445e-05,0.0,0 STARLINK-4117,1 53169U 22083AP  24163.31414888  .00002445  00000-0  17163-3 0  9998,2 53169  53.2163 126.1785 0001513  93.9743 266.1422 15.08842291105482,6917.873,95.437,540.785,538.692,0.0
53169.0,STARLINK-4117,PAYLOAD,2024-06-12 04:12:23,15.08842285,0.0001462,53.2163,122.3181,92.8689,267.247,4.1361e-05,3.7e-06,0.0,0 STARLINK-4117,1 53169U 22083AP  24164.17526914  .00000370  00000-0  41361-4 0  9990,2 53169  53.2163 122.3181 0001462  92.8689 267.2470 15.08842285105613,6917.873,95.437,540.75,538.727,0.0
53169.0,STARLINK-4117,PAYLOAD,2024-06-12 21:41:38,15.08835158,0.0001463,53.2169,119.0468,95.7172,264.3987,1.9855e-05,2.8e-07,0.0,0 STARLINK-4117,1 53169U 22083AP  24164.90391719  .00000028  00000-0  19855-4 0  9997,2 53169  53.2169 119.0468 0001463  95.7172 264.3987 15.08835158105724,6917.895,95.438,540.772,538.748,0.0
53169.0,STARLINK-4117,PAYLOAD,2024-06-13 04:03:10,15.08836861,0.000147,53.2174,117.8577,95.8448,264.2712,2.2439e-05,6.9e-07,0.0,0 STARLINK-4117,1 53169U 22083AP  24165.16887654  .00000069  00000-0  22439-4 0  9991,2 53169  53.2174 117.8577 0001470  95.8448 264.2712 15.08836861106405,6917.89,95.438,540.772,538.738,0.0
53169.0,STARLINK-4117,PAYLOAD,2024-06-13 13:35:29,15.08839,0.0001445,53.2174,116.0732,95.1102,265.0055,2.7319e-05,1.47e-06,0.0,0 STARLINK-4117,1 53169U 22083AP  24165.56631543  .00000147  00000-0  27319-4 0  9998,2 53169  53.2174 116.0732 0001445  95.1102 265.0055 15.08839000105823,6917.883,95.438,540.748,538.749,0.0
53169.0,STARLINK-4117,PAYLOAD,2024-06-14 13:26:16,15.08843687,0.0001482,53.2182,111.6107,86.5915,273.5246,3.0715e-05,2.01e-06,0.0,0 STARLINK-4117,1 53169U 22083AP  24166.55991537  .00000201  00000-0  30715-4 0  9995,2 53169  53.2182 111.6107 0001482  86.5915 273.5246 15.08843687105974,6917.869,95.437,540.759,538.709,0.0
53169.0,STARLINK-4117,PAYLOAD,2024-06-15 05:20:08,15.08840966,0.0001522,53.2188,108.6356,86.6778,273.4388,0.0001331,1.831e-05,0.0,0 STARLINK-4117,1 53169U 22083AP  24167.22231708  .00001831  00000-0  13310-3 0  9998,2 53169  53.2188 108.6356 0001522  86.6778 273.4388 15.08840966106070,6917.877,95.437,540.795,538.69,0.0
53169.0,STARLINK-4117,PAYLOAD,2024-06-16 13:07:51,15.08837327,0.0001514,53.2189,102.686,86.2296,273.8869,1.8395e-05,5e-08,0.0,0 STARLINK-4117,1 53169U 22083AP  24168.54712180  .00000005  00000-0  18395-4 0  9993,2 53169  53.2189 102.6860 0001514  86.2296 273.8869 15.08837327106274,6917.889,95.438,540.801,538.706,0.0
53169.0,STARLINK-4117,PAYLOAD,2024-06-16 19:29:24,15.08833999,0.0001546,53.2175,101.4987,85.6777,274.4392,3.8031e-05,3.17e-06,0.0,0 STARLINK-4117,1 53169U 22083AP  24168.81208455  .00000317  00000-0  38031-4 0  9993,2 53169  53.2175 101.4987 0001546  85.6777 274.4392 15.08833999106312,6917.899,95.438,540.833,538.694,0.0
53169.0,STARLINK-4117,PAYLOAD,2024-06-17 22:30:56,15.08849493,0.0001509,53.2164,96.4441,87.8872,272.2293,3.9322e-05,3.38e-06,0.0,0 STARLINK-4117,1 53169U 22083AP  24169.93815538  .00000338  00000-0  39322-4 0  9990,2 53169  53.2164  96.4441 0001509  87.8872 272.2293 15.08849493106487,6917.851,95.437,540.76,538.672,0.0
53169.0,STARLINK-4117,PAYLOAD,2024-06-18 04:52:28,15.08853814,0.0001485,53.2174,95.2534,93.9511,266.1651,6.395e-05,7.3e-06,0.0,0 STARLINK-4117,1 53169U 22083AP  24170.20311047  .00000730  00000-0  63950-4 0  9998,2 53169  53.2174  95.2534 0001485  93.9511 266.1651 15.08853814107167,6917.838,95.437,540.73,538.676,0.0
53169.0,STARLINK-4117,PAYLOAD,2024-06-19 04:43:16,15.08843429,0.000133,53.2169,90.7929,90.7843,269.3301,8.9335e-05,1.134e-05,0.0,0 STARLINK-4117,1 53169U 22083AP  24171.19671457  .00001134  00000-0  89335-4 0  9995,2 53169  53.2169  90.7929 0001330  90.7843 269.3301 15.08843429107316,6917.87,95.437,540.655,538.815,0.0
53169.0,STARLINK-4117,PAYLOAD,2024-06-19 22:12:31,15.08837843,0.0001341,53.2171,87.5188,98.0722,262.0422,-4.3719e-05,-9.84e-06,0.0,0 STARLINK-4117,1 53169U 22083AP  24171.92536149 -.00000984  00000-0 -43719-4 0  9994,2 53169  53.2171  87.5188 0001341  98.0722 262.0422 15.08837843106786,6917.887,95.438,540.68,538.824,0.0
53169.0,STARLINK-4117,PAYLOAD,2024-06-20 01:23:17,15.0884067,0.0001364,53.2169,86.9236,90.6507,269.4641,-2.3813e-05,-6.67e-06,0.0,0 STARLINK-4117,1 53169U 22083AP  24172.05783923 -.00000667  00000-0 -23813-4 0  9994,2 53169  53.2169  86.9236 0001364  90.6507 269.4641 15.08840670107444,6917.878,95.438,540.687,538.8,0.0
53169.0,STARLINK-4117,PAYLOAD,2024-06-20 10:55:35,15.08843326,0.0001396,53.2169,85.1434,78.9975,281.1174,-2.5265e-05,-6.9e-06,0.0,0 STARLINK-4117,1 53169U 22083AP  24172.45527719 -.00000690  00000-0 -25265-4 0  9996,2 53169  53.2169  85.1434 0001396  78.9975 281.1174 15.08843326106866,6917.87,95.437,540.701,538.769,0.0
53169.0,STARLINK-4117,PAYLOAD,2024-06-20 22:03:18,15.08835813,0.000136,53.2179,83.0665,101.6309,258.4836,-3.8617e-05,-9.02e-06,0.0,0 STARLINK-4117,1 53169U 22083AP  24172.91896536 -.00000902  00000-0 -38617-4 0  9994,2 53169  53.2179  83.0665 0001360 101.6309 258.4836 15.08835813106938,6917.893,95.438,540.699,538.817,0.0
53169.0,STARLINK-4117,PAYLOAD,2024-06-21 04:24:50,15.0884172,0.0001247,53.2176,81.8746,95.6355,264.4779,-2.0063e-06,-3.2e-06,0.0,0 STARLINK-4117,1 53169U 22083AP  24173.18391973 -.00000320  00000-0 -20063-5 0  9990,2 53169  53.2176  81.8746 0001247  95.6355 264.4779 15.08841720107611,6917.875,95.437,540.603,538.877,0.0
53169.0,STARLINK-4117,PAYLOAD,2024-06-21 21:54:05,15.08834405,0.0001147,53.2171,78.6025,100.9266,259.1855,3.7348e-06,-2.28e-06,0.0,0 STARLINK-4117,1 53169U 22083AP  24173.91256891 -.00000228  00000-0  37348-5 0  9990,2 53169  53.2171  78.6025 0001147 100.9266 259.1855 15.08834405107089,6917.897,95.438,540.556,538.969,0.0
53169.0,STARLINK-4117,PAYLOAD,2024-06-22 04:15:38,15.08841523,0.00013,53.2168,77.412,83.2914,276.8226,9.2685e-05,1.188e-05,0.0,0 STARLINK-4117,1 53169U 22083AP  24174.17752329  .00001188  00000-0  92685-4 0  9995,2 53169  53.2168  77.4120 0001300  83.2914 276.8226 15.08841523107124,6917.876,95.437,540.64,538.841,0.0
53169.0,STARLINK-4117,PAYLOAD,2024-06-22 21:44:53,15.08833357,0.0001129,53.2166,74.1409,81.6661,278.4459,0.00011008,1.464e-05,0.0,0 STARLINK-4117,1 53169U 22083AP  24174.90616963  .00001464  00000-0  11008-3 0  9995,2 53169  53.2166  74.1409 0001129  81.6661 278.4459 15.08833357107230,6917.901,95.438,540.547,538.985,0.0
53169.0,STARLINK-4117,PAYLOAD,2024-06-22 23:20:16,15.08837778,0.000122,53.217,73.8426,91.327,268.7861,7.8607e-05,9.63e-06,0.0,0 STARLINK-4117,1 53169U 22083AP  24174.97240837  .00000963  00000-0  78607-4 0  9997,2 53169  53.2170  73.8426 0001220  91.3270 268.7861 15.08837778107887,6917.887,95.438,540.596,538.908,0.0
53169.0,STARLINK-4117,PAYLOAD,2024-06-23 16:49:31,15.08818691,0.0001122,53.2161,70.5713,115.5654,244.5454,0.00045616,6.975e-05,0.0,0 STARLINK-4117,1 53169U 22083AP  24175.70105417  .00006975  00000-0  45616-3 0  9995,2 53169  53.2161  70.5713 0001122 115.5654 244.5454 15.08818691107991,6917.946,95.439,540.587,539.034,0.0
53169.0,STARLINK-4117,PAYLOAD,2024-06-23 21:35:39,15.08849573,0.000115,53.2167,69.6804,97.1743,262.9379,8.886e-05,1.127e-05,0.0,0 STARLINK-4117,1 53169U 22083AP  24175.89976010  .00001127  00000-0  88860-4 0  9993,2 53169  53.2167  69.6804 0001150  97.1743 262.9379 15.08849573107388,6917.851,95.437,540.512,538.921,0.0
53169.0,STARLINK-4117,PAYLOAD,2024-06-24 00:46:25,15.08855285,0.0001235,53.217,69.0859,100.5687,259.5444,0.00013375,1.842e-05,0.0,0 STARLINK-4117,1 53169U 22083AP  24176.03223513  .00001842  00000-0  13375-3 0  9995,2 53169  53.2170  69.0859 0001235 100.5687 259.5444 15.08855285108042,6917.834,95.437,540.553,538.844,0.0
53169.0,STARLINK-4117,PAYLOAD,2024-06-24 21:26:26,15.08842121,0.000135,53.2174,65.2218,87.9207,272.194,3.7098e-05,3.03e-06,0.0,0 STARLINK-4117,1 53169U 22083AP  24176.89336604  .00000303  00000-0  37098-4 0  9995,2 53169  53.2174  65.2218 0001350  87.9207 272.1940 15.08842121107537,6917.874,95.437,540.673,538.805,0.0
